NORAD_CAT_ID,OBJECT_NAME,OBJECT_TYPE,EPOCH,MEAN_MOTION,ECCENTRICITY,INCLINATION,RA_OF_ASC_NODE,ARG_OF_PERICENTER,MEAN_ANOMALY,BSTAR,MEAN_MOTION_DOT,MEAN_MOTION_DDOT,TLE_LINE0,TLE_LINE1,TLE_LINE2,SEMIMAJOR_AXIS,PERIOD,APOGEE,PERIGEE,DECAYED
50813.0,STARLINK-3349,PAYLOAD,2022-12-08 15:19:11,15.08852505,0.0002243,53.2158,88.014,16.8987,343.2079,0.0004565,6.987e-05,0.0,0 STARLINK-3349,1 50813U 22001L   22342.63833225  .00006987  00000-0  45650-3 0  9990,2 50813  53.2158  88.0140 0002243  16.8987 343.2079 15.08852505 51344,6917.842,95.437,541.259,538.155,0.0
50813.0,STARLINK-3349,PAYLOAD,2022-12-09 07:13:02,15.08854096,0.0001879,53.2168,85.0402,24.994,335.1143,0.00027575,4.105e-05,0.0,0 STARLINK-3349,1 50813U 22001L   22343.30072726  .00004105  00000-0  27575-3 0  9992,2 50813  53.2168  85.0402 0001879  24.9940 335.1143 15.08854096 51446,6917.837,95.437,541.002,538.4019999999998,0.0
50813.0,STARLINK-3349,PAYLOAD,2022-12-09 18:20:46,15.08826401,0.0002093,53.2166,82.9574,34.5929,325.5199,-0.00018403,-3.215e-05,0.0,0 STARLINK-3349,1 50813U 22001L   22343.76442146 -.00003215  00000-0 -18403-3 0  9992,2 50813  53.2166  82.9574 0002093  34.5929 325.5199 15.08826401 52762,6917.922,95.438,541.235,538.339,0.0
50813.0,STARLINK-3349,PAYLOAD,2022-12-10 13:25:23,15.08841943,0.0001771,53.2172,79.3861,45.6439,314.4698,-3.9436e-05,-9.16e-06,0.0,0 STARLINK-3349,1 50813U 22001L   22344.55929891 -.00000916  00000-0 -39436-4 0  9992,2 50813  53.2172  79.3861 0001771  45.6439 314.4698 15.08841943 52881,6917.874,95.437,540.965,538.514,0.0
50813.0,STARLINK-3349,PAYLOAD,2022-12-11 10:05:25,15.08818887,0.0002035,53.2178,75.5205,46.6557,313.4605,0.00016554,2.346e-05,0.0,0 STARLINK-3349,1 50813U 22001L   22345.42043168  .00002346  00000-0  16554-3 0  9995,2 50813  53.2178  75.5205 0002035  46.6557 313.4605 15.08818887 53017,6917.945,95.439,541.2180000000002,538.4019999999998,0.0
50813.0,STARLINK-3349,PAYLOAD,2022-12-11 11:40:48,15.08819146,0.0001811,53.2169,75.2228,44.404,315.7097,0.00016802,2.385e-05,0.0,0 STARLINK-3349,1 50813U 22001L   22345.48667200  .00002385  00000-0  16802-3 0  9999,2 50813  53.2169  75.2228 0001811  44.4040 315.7097 15.08819146 51773,6917.944,95.439,541.062,538.556,0.0
50813.0,STARLINK-3349,PAYLOAD,2022-12-11 13:16:11,15.08819726,0.0001934,53.2183,74.9267,43.2591,316.8552,0.00014308,1.989e-05,0.0,0 STARLINK-3349,1 50813U 22001L   22345.55291332  .00001989  00000-0  14308-3 0  9994,2 50813  53.2183  74.9267 0001934  43.2591 316.8552 15.08819726 51785,6917.941999999999,95.439,541.145,538.469,0.0
50813.0,STARLINK-3349,PAYLOAD,2022-12-12 09:56:12,15.08839904,0.0001894,53.2174,71.0603,42.2578,317.856,0.00013074,1.793e-05,0.0,0 STARLINK-3349,1 50813U 22001L   22346.41402799  .00001793  00000-0  13074-3 0  9993,2 50813  53.2174  71.0603 0001894  42.2578 317.8560 15.08839904 53160,6917.880999999999,95.438,541.056,538.435,0.0
50813.0,STARLINK-3349,PAYLOAD,2022-12-12 11:31:35,15.08840078,0.0001901,53.2178,70.7632,42.6722,317.4418,0.00012938,1.772e-05,0.0,0 STARLINK-3349,1 50813U 22001L   22346.48026793  .00001772  00000-0  12938-3 0  9991,2 50813  53.2178  70.7632 0001901  42.6722 317.4418 15.08840078 51920,6917.88,95.438,541.06,538.43,0.0
50813.0,STARLINK-3349,PAYLOAD,2022-12-13 06:36:13,15.08833218,0.0002018,53.2176,67.1949,36.8894,323.2237,0.00011639,1.564e-05,0.0,0 STARLINK-3349,1 50813U 22001L   22347.27515662  .00001564  00000-0  11639-3 0  9993,2 50813  53.2176  67.1949 0002018  36.8894 323.2237 15.08833218 53298,6917.901,95.438,541.1619999999998,538.37,0.0
50813.0,STARLINK-3349,PAYLOAD,2022-12-13 09:46:59,15.08831943,0.0002028,53.2174,66.6001,36.1869,323.926,9.7851e-05,1.269e-05,0.0,0 STARLINK-3349,1 50813U 22001L   22347.40763825  .00001269  00000-0  97851-4 0  9997,2 50813  53.2174  66.6001 0002028  36.1869 323.9260 15.08831943 52065,6917.905,95.438,541.173,538.367,0.0
50813.0,STARLINK-3349,PAYLOAD,2022-12-14 04:51:36,15.088449300000002,0.0002058,53.2174,63.032,35.8217,324.2913,0.0001044,1.374e-05,0.0,0 STARLINK-3349,1 50813U 22001L   22348.20251071  .00001374  00000-0  10440-3 0  9996,2 50813  53.2174  63.0320 0002058  35.8217 324.2913 15.08844930 53437,6917.865,95.437,541.154,538.307,0.0
50813.0,STARLINK-3349,PAYLOAD,2022-12-14 11:13:09,15.08844386,0.0002077,53.2172,61.8423,35.4723,324.6407,8.9415e-05,1.135e-05,0.0,0 STARLINK-3349,1 50813U 22001L   22348.46747112  .00001135  00000-0  89415-4 0  9994,2 50813  53.2172  61.8423 0002077  35.4723 324.6407 15.08844386 52227,6917.8669999999975,95.437,541.169,538.295,0.0
50813.0,STARLINK-3349,PAYLOAD,2022-12-14 12:48:32,15.08846637,0.0002095,53.2167,61.5445,36.0913,324.022,0.00010503,1.384e-05,0.0,0 STARLINK-3349,1 50813U 22001L   22348.53370908  .00001384  00000-0  10503-3 0  9994,2 50813  53.2167  61.5445 0002095  36.0913 324.0220 15.08846637 52239,6917.86,95.437,541.174,538.276,0.0
50813.0,STARLINK-3349,PAYLOAD,2022-12-15 04:42:24,15.08836746,0.0001982,53.2158,58.57,35.5445,324.5679,0.00010458,1.376e-05,0.0,0 STARLINK-3349,1 50813U 22001L   22349.19611733  .00001376  00000-0  10458-3 0  9991,2 50813  53.2158  58.5700 0001982  35.5445 324.5679 15.08836746 53589,6917.89,95.438,541.126,538.384,0.0
50813.0,STARLINK-3349,PAYLOAD,2022-12-15 12:39:20,15.08834945,0.0002166,53.216,57.0849,29.2287,330.8826,6.1701e-05,6.94e-06,0.0,0 STARLINK-3349,1 50813U 22001L   22349.52731986  .00000694  00000-0  61701-4 0  9991,2 50813  53.2160  57.0849 0002166  29.2287 330.8826 15.08834945 52389,6917.896,95.438,541.259,538.262,0.0
50813.0,STARLINK-3349,PAYLOAD,2022-12-15 15:50:06,15.08839751,0.0002231,53.2162,56.4901,27.5372,332.5737,0.00011132,1.484e-05,0.0,0 STARLINK-3349,1 50813U 22001L   22349.65979758  .00001484  00000-0  11132-3 0  9996,2 50813  53.2162  56.4901 0002231  27.5372 332.5737 15.08839751 52405,6917.880999999999,95.438,541.29,538.203,0.0
50813.0,STARLINK-3349,PAYLOAD,2022-12-16 10:54:43,15.08848891,0.0002342,53.2161,52.922,37.0541,323.0612,0.00032212,4.843e-05,0.0,0 STARLINK-3349,1 50813U 22001L   22350.45467524  .00004843  00000-0  32212-3 0  9993,2 50813  53.2161  52.9220 0002342  37.0541 323.0612 15.08848891 53779,6917.853,95.437,541.3380000000002,538.0980000000002,0.0
50813.0,STARLINK-3349,PAYLOAD,2022-12-16 14:05:30,15.08848711,0.000236,53.2158,52.3277,34.9648,325.1499,0.00036246,5.486e-05,0.0,0 STARLINK-3349,1 50813U 22001L   22350.58715529  .00005486  00000-0  36246-3 0  9993,2 50813  53.2158  52.3277 0002360  34.9648 325.1499 15.08848711 52546,6917.854,95.437,541.351,538.086,0.0
50813.0,STARLINK-3349,PAYLOAD,2022-12-17 10:45:31,15.08842174,0.0002319,53.2164,48.4615,34.5886,325.5257,0.00015759,2.221e-05,0.0,0 STARLINK-3349,1 50813U 22001L   22351.44827873  .00002221  00000-0  15759-3 0  9995,2 50813  53.2164  48.4615 0002319  34.5886 325.5257 15.08842174 53925,6917.874,95.437,541.3430000000002,538.134,0.0
50813.0,STARLINK-3349,PAYLOAD,2022-12-17 12:20:54,15.08842568,0.0002307,53.2164,48.1641,34.3572,325.7569,0.00017705,2.531e-05,0.0,0 STARLINK-3349,1 50813U 22001L   22351.51451884  .00002531  00000-0  17705-3 0  9995,2 50813  53.2164  48.1641 0002307  34.3572 325.7569 15.08842568 52685,6917.873000000001,95.437,541.3330000000002,538.1419999999998,0.0
50813.0,STARLINK-3349,PAYLOAD,2022-12-17 13:56:17,15.08843989,0.000231,53.2163,47.8666,34.2379,325.8762,0.00020748,3.016e-05,0.0,0 STARLINK-3349,1 50813U 22001L   22351.58075849  .00003016  00000-0  20748-3 0  9995,2 50813  53.2163  47.8666 0002310  34.2379 325.8762 15.08843989 52690,6917.868,95.437,541.331,538.135,0.0
50813.0,STARLINK-3349,PAYLOAD,2022-12-18 10:36:18,15.08838141,0.00023,53.2162,44.0006,35.1169,324.9975,4.7387e-05,4.66e-06,0.0,0 STARLINK-3349,1 50813U 22001L   22352.44188049  .00000466  00000-0  47387-4 0  9993,2 50813  53.2162  44.0006 0002300  35.1169 324.9975 15.08838141 54076,6917.886,95.438,541.342,538.16,0.0
50813.0,STARLINK-3349,PAYLOAD,2022-12-18 12:11:41,15.08833376,0.0002335,53.2164,43.7038,33.3567,326.7572,-4.0051e-05,-9.26e-06,0.0,0 STARLINK-3349,1 50813U 22001L   22352.50812259 -.00000926  00000-0 -40051-4 0  9991,2 50813  53.2164  43.7038 0002335  33.3567 326.7572 15.08833376 52839,6917.901,95.438,541.381,538.15,0.0
50813.0,STARLINK-3349,PAYLOAD,2022-12-18 20:08:37,15.0883905,0.000232,53.2171,42.2173,35.3603,324.7543,1.3968e-05,-6.6e-07,0.0,0 STARLINK-3349,1 50813U 22001L   22352.83932330 -.00000066  00000-0  13968-4 0  9991,2 50813  53.2171  42.2173 0002320  35.3603 324.7543 15.08839050 52884,6917.8830000000025,95.438,541.3530000000002,538.143,0.0
50813.0,STARLINK-3349,PAYLOAD,2022-12-19 07:16:19,15.08833846,0.0002237,53.2173,40.1355,31.1782,328.9342,0.00010732,1.42e-05,0.0,0 STARLINK-3349,1 50813U 22001L   22353.30300610  .00001420  00000-0  10732-3 0  9993,2 50813  53.2173  40.1355 0002237  31.1782 328.9342 15.08833846 54202,6917.899,95.438,541.312,538.217,0.0
50813.0,STARLINK-3349,PAYLOAD,2022-12-19 19:59:23,15.08850363,0.0002335,53.2172,37.7564,33.6941,326.42,0.00019249,2.777e-05,0.0,0 STARLINK-3349,1 50813U 22001L   22353.83291429  .00002777  00000-0  19249-3 0  9996,2 50813  53.2172  37.7564 0002335  33.6941 326.4200 15.08850363 54285,6917.849,95.437,541.3290000000002,538.0980000000002,0.0
50813.0,STARLINK-3349,PAYLOAD,2022-12-20 11:53:15,15.08855484,0.00024,53.2167,34.783,32.5232,327.5908,0.00026918,4e-05,0.0,0 STARLINK-3349,1 50813U 22001L   22354.49531277  .00004000  00000-0  26918-3 0  9999,2 50813  53.2167  34.7830 0002400  32.5232 327.5908 15.08855484 53135,6917.833000000001,95.437,541.3580000000002,538.038,0.0
50813.0,STARLINK-3349,PAYLOAD,2022-12-21 11:44:02,15.08830904,0.0002256,53.2161,30.3222,30.23,329.8822,-0.00016451,-2.905e-05,0.0,0 STARLINK-3349,1 50813U 22001L   22355.48892175 -.00002905  00000-0 -16451-3 0  9991,2 50813  53.2161  30.3222 0002256  30.2300 329.8822 15.08830904 54531,6917.908,95.438,541.3340000000002,538.2130000000002,0.0
